NORAD_CAT_ID,OBJECT_NAME,OBJECT_TYPE,EPOCH,MEAN_MOTION,ECCENTRICITY,INCLINATION,RA_OF_ASC_NODE,ARG_OF_PERICENTER,MEAN_ANOMALY,BSTAR,MEAN_MOTION_DOT,MEAN_MOTION_DDOT,TLE_LINE0,TLE_LINE1,TLE_LINE2,SEMIMAJOR_AXIS,PERIOD,APOGEE,PERIGEE,DECAYED
52480.0,STARLINK-3839,PAYLOAD,2023-09-14 01:45:04,15.08852467,0.0001105,53.2171,173.5694,93.3084,266.8034,0.0001336,1.84e-05,0.0,0 STARLINK-3839,1 52480U 22049AF  23257.07297336  .00001840  00000-0  13360-3 0  9991,2 52480  53.2171 173.5694 0001105  93.3084 266.8034 15.08852467 75398,6917.842,95.437,540.472,538.943,0.0
52480.0,STARLINK-3839,PAYLOAD,2023-09-14 03:20:28,15.08851529,0.0001119,53.217,173.2727,95.2159,264.8961,0.00012907,1.768e-05,0.0,0 STARLINK-3839,1 52480U 22049AF  23257.13921404  .00001768  00000-0  12907-3 0  9993,2 52480  53.2170 173.2727 0001119  95.2159 264.8961 15.08851529 75249,6917.845,95.437,540.484,538.936,0.0
52480.0,STARLINK-3839,PAYLOAD,2023-09-15 03:11:16,15.08842462,0.0001222,53.2169,168.8115,91.9619,268.1513,-1.319e-05,-4.98e-06,0.0,0 STARLINK-3839,1 52480U 22049AF  23258.13282618 -.00000498  00000-0 -13190-4 0  9998,2 52480  53.2169 168.8115 0001222  91.9619 268.1513 15.08842462 75557,6917.873,95.437,540.583,538.892,0.0
52480.0,STARLINK-3839,PAYLOAD,2023-09-16 03:02:02,15.08848302,0.0001315,53.217,164.3504,99.0654,261.0487,0.00015826,2.232e-05,0.0,0 STARLINK-3839,1 52480U 22049AF  23259.12641859  .00002232  00000-0  15826-3 0  9997,2 52480  53.2170 164.3504 0001315  99.0654 261.0487 15.08848302 75701,6917.855,95.437,540.63,538.81,0.0
52480.0,STARLINK-3839,PAYLOAD,2023-09-17 01:17:27,15.08841679,0.0001302,53.2172,160.1878,96.0921,264.0219,0.00010755,1.424e-05,0.0,0 STARLINK-3839,1 52480U 22049AF  23260.05378615  .00001424  00000-0  10755-3 0  9996,2 52480  53.2172 160.1878 0001302  96.0921 264.0219 15.08841679 75842,6917.875,95.437,540.641,538.84,0.0
52480.0,STARLINK-3839,PAYLOAD,2023-09-17 23:32:50,15.08853174,0.0001277,53.217,156.0257,96.7588,263.355,7.9444e-05,9.77e-06,0.0,0 STARLINK-3839,1 52480U 22049AF  23260.98113927  .00000977  00000-0  79444-4 0  9994,2 52480  53.2170 156.0257 0001277  96.7588 263.3550 15.08853174 75980,6917.84,95.437,540.589,538.822,0.0
52480.0,STARLINK-3839,PAYLOAD,2023-09-18 20:12:52,15.08838147,0.0001403,53.217,152.1604,98.2035,261.9116,2.36e-05,8.8e-07,0.0,0 STARLINK-3839,1 52480U 22049AF  23261.84226953  .00000088  00000-0  23600-4 0  9990,2 52480  53.2170 152.1604 0001403  98.2035 261.9116 15.08838147 75950,6917.886,95.438,540.722,538.78,0.0
52480.0,STARLINK-3839,PAYLOAD,2023-09-19 00:59:00,15.08846602,0.0001288,53.2173,151.267,88.9928,271.1212,7.4353e-05,8.96e-06,0.0,0 STARLINK-3839,1 52480U 22049AF  23262.04098302  .00000896  00000-0  74353-4 0  9996,2 52480  53.2173 151.2670 0001288  88.9928 271.1212 15.08846602 76141,6917.86,95.437,540.616,538.834,0.0
52480.0,STARLINK-3839,PAYLOAD,2023-09-20 08:46:43,15.08841291,0.000166,53.2163,145.3186,90.5911,269.5271,5.3166e-05,5.58e-06,0.0,0 STARLINK-3839,1 52480U 22049AF  23263.36578329  .00000558  00000-0  53166-4 0  9998,2 52480  53.2163 145.3186 0001660  90.5911 269.5271 15.08841291 76348,6917.876,95.437,540.89,538.593,0.0
52480.0,STARLINK-3839,PAYLOAD,2023-09-20 21:29:51,15.08816402,0.0001551,53.2174,142.9409,91.2326,268.8844,-0.00014869,-2.652e-05,0.0,0 STARLINK-3839,1 52480U 22049AF  23263.89573098 -.00002652  00000-0 -14869-3 0  9999,2 52480  53.2174 142.9409 0001551  91.2326 268.8844 15.08816402 76263,6917.953,95.439,540.89,538.745,0.0
52480.0,STARLINK-3839,PAYLOAD,2023-09-21 02:15:59,15.08815491,0.000165,53.216,142.0469,91.9861,268.132,-0.00028803,-4.866e-05,0.0,0 STARLINK-3839,1 52480U 22049AF  23264.09444420 -.00004866  00000-0 -28803-3 0  9990,2 52480  53.2160 142.0469 0001650  91.9861 268.1320 15.08815491 76456,6917.955,95.439,540.962,538.679,0.0
52480.0,STARLINK-3839,PAYLOAD,2023-09-21 22:56:00,15.08840738,0.0001502,53.2167,138.1858,109.9874,250.128,7.5265e-06,-1.68e-06,0.0,0 STARLINK-3839,1 52480U 22049AF  23264.95555895 -.00000168  00000-0  75265-5 0  9990,2 52480  53.2167 138.1858 0001502 109.9874 250.1280 15.08840738 76426,6917.878,95.438,540.782,538.704,0.0
52480.0,STARLINK-3839,PAYLOAD,2023-09-22 00:31:23,15.08842616,0.0001504,53.217,137.8877,105.5127,254.6032,3.1849e-05,2.19e-06,0.0,0 STARLINK-3839,1 52480U 22049AF  23265.02179725  .00000219  00000-0  31849-4 0  9998,2 52480  53.2170 137.8877 0001504 105.5127 254.6032 15.08842616 76591,6917.872,95.437,540.778,538.697,0.0
52480.0,STARLINK-3839,PAYLOAD,2023-09-22 21:11:24,15.08842514,0.0001648,53.2163,134.0215,99.4013,260.7166,0.0004012,6.103e-05,0.0,0 STARLINK-3839,1 52480U 22049AF  23265.88292017  .00006103  00000-0  40120-3 0  9991,2 52480  53.2163 134.0215 0001648  99.4013 260.7166 15.08842514 76562,6917.873,95.437,540.878,538.598,0.0
52480.0,STARLINK-3839,PAYLOAD,2023-09-23 00:22:10,15.0885609,0.0001514,53.216,133.4264,94.3451,265.7714,0.00028842,4.307e-05,0.0,0 STARLINK-3839,1 52480U 22049AF  23266.01539373  .00004307  00000-0  28842-3 0  9997,2 52480  53.2160 133.4264 0001514  94.3451 265.7714 15.08856090 76746,6917.831,95.437,540.744,538.649,0.0
52480.0,STARLINK-3839,PAYLOAD,2023-09-23 17:51:24,15.08846202,0.0001627,53.2153,130.1536,87.1075,273.0104,4.8769e-05,4.88e-06,0.0,0 STARLINK-3839,1 52480U 22049AF  23266.74403697  .00000488  00000-0  48769-4 0  9993,2 52480  53.2153 130.1536 0001627  87.1075 273.0104 15.08846202 76852,6917.861,95.437,540.852,538.601,0.0
52480.0,STARLINK-3839,PAYLOAD,2023-09-24 14:31:25,15.088431,0.0001356,53.2162,126.2866,100.1381,259.9764,-5.5436e-05,-1.17e-05,0.0,0 STARLINK-3839,1 52480U 22049AF  23267.60515693 -.00001170  00000-0 -55436-4 0  9999,2 52480  53.2162 126.2866 0001356 100.1381 259.9764 15.08843100 76825,6917.871,95.437,540.674,538.798,0.0
52480.0,STARLINK-3839,PAYLOAD,2023-09-24 20:52:58,15.08842356,0.000135,53.216,125.098,95.2512,264.8634,-3.7757e-05,-8.89e-06,0.0,0 STARLINK-3839,1 52480U 22049AF  23267.87011769 -.00000889  00000-0 -37757-4 0  9995,2 52480  53.2160 125.0980 0001350  95.2512 264.8634 15.08842356 77027,6917.873,95.437,540.672,538.804,0.0
52480.0,STARLINK-3839,PAYLOAD,2023-09-25 08:00:39,15.08846135,0.0001344,53.2161,123.0147,99.8016,260.3128,6.969e-05,8.22e-06,0.0,0 STARLINK-3839,1 52480U 22049AF  23268.33379472  .00000822  00000-0  69690-4 0  9991,2 52480  53.2161 123.0147 0001344  99.8016 260.3128 15.08846135 76930,6917.862,95.437,540.656,538.797,0.0
52480.0,STARLINK-3839,PAYLOAD,2023-09-25 20:43:44,15.08848974,0.0001292,53.2159,120.6361,101.309,258.8047,0.00021137,3.078e-05,0.0,0 STARLINK-3839,1 52480U 22049AF  23268.86371410  .00003078  00000-0  21137-3 0  9992,2 52480  53.2159 120.6361 0001292 101.3090 258.8047 15.08848974 77016,6917.853,95.437,540.612,538.824,0.0
52480.0,STARLINK-3839,PAYLOAD,2023-09-25 23:54:30,15.08853936,0.0001278,53.2162,120.0417,99.4665,260.6472,0.00029523,4.416e-05,0.0,0 STARLINK-3839,1 52480U 22049AF  23268.99619146  .00004416  00000-0  29523-3 0  9991,2 52480  53.2162 120.0417 0001278  99.4665 260.6472 15.08853936 77191,6917.838,95.437,540.587,538.819,0.0
52480.0,STARLINK-3839,PAYLOAD,2023-09-26 20:34:32,15.08838441,0.0001444,53.2154,116.1743,111.4847,248.63,5.2443e-05,5.47e-06,0.0,0 STARLINK-3839,1 52480U 22049AF  23269.85731992  .00000547  00000-0  52443-4 0  9990,2 52480  53.2154 116.1743 0001444 111.4847 248.6300 15.08838441 77327,6917.885,95.438,540.749,538.751,0.0
52480.0,STARLINK-3839,PAYLOAD,2023-09-27 23:36:06,15.08837432,0.0001464,53.2162,111.1182,114.7071,245.4074,2.0875e-06,-2.55e-06,0.0,0 STARLINK-3839,1 52480U 22049AF  23270.98340442 -.00000255  00000-0  20875-5 0  9994,2 52480  53.2162 111.1182 0001464 114.7071 245.4074 15.08837432 77495,6917.888,95.438,540.766,538.74,0.0
52480.0,STARLINK-3839,PAYLOAD,2023-09-28 18:40:43,15.08844059,0.0001409,53.2155,107.5515,105.479,254.6357,0.00021793,3.182e-05,0.0,0 STARLINK-3839,1 52480U 22049AF  23271.77828259  .00003182  00000-0  21793-3 0  9998,2 52480  53.2155 107.5515 0001409 105.4790 254.6357 15.08844059 77455,6917.868,95.437,540.708,538.758,0.0
52480.0,STARLINK-3839,PAYLOAD,2023-09-28 23:26:52,15.08845934,0.000141,53.2155,106.6593,105.4015,254.7133,0.00022267,3.258e-05,0.0,0 STARLINK-3839,1 52480U 22049AF  23271.97700133  .00003258  00000-0  22267-3 0  9991,2 52480  53.2155 106.6593 0001410 105.4015 254.7133 15.08845934 77640,6917.862,95.437,540.703,538.752,0.0
52480.0,STARLINK-3839,PAYLOAD,2023-09-29 18:31:30,15.08843211,0.0001393,53.2155,103.0902,108.4296,251.6848,0.00010059,1.313e-05,0.0,0 STARLINK-3839,1 52480U 22049AF  23272.77188167  .00001313  00000-0  10059-3 0  9993,2 52480  53.2155 103.0902 0001393 108.4296 251.6848 15.08843211 77767,6917.871,95.437,540.699,538.772,0.0
52480.0,STARLINK-3839,PAYLOAD,2023-09-29 20:06:53,15.08845219,0.000133,53.2159,102.793,96.8843,263.23,0.00012248,1.662e-05,0.0,0 STARLINK-3839,1 52480U 22049AF  23272.83812103  .00001662  00000-0  12248-3 0  9993,2 52480  53.2159 102.7930 0001330  96.8843 263.2300 15.08845219 77613,6917.864,95.437,540.65,538.809,0.0
52480.0,STARLINK-3839,PAYLOAD,2023-09-30 18:22:17,15.08841216,0.000149,53.2161,98.6338,60.4208,299.6932,-6.3497e-06,-3.89e-06,0.0,0 STARLINK-3839,1 52480U 22049AF  23273.76548480 -.00000389  00000-0 -63497-5 0  9991,2 52480  53.2161  98.6338 0001490  60.4208 299.6932 15.08841216 77910,6917.877,95.437,540.772,538.711,0.0
52480.0,STARLINK-3839,PAYLOAD,2023-09-30 19:57:41,15.08813125,0.0001467,53.2168,98.3359,80.4739,279.6419,0.00053271,8.194e-05,0.0,0 STARLINK-3839,1 52480U 22049AF  23273.83173478  .00008194  00000-0  53271-3 0  9997,2 52480  53.2168  98.3359 0001467  80.4739 279.6419 15.08813125 77929,6917.963,95.439,540.842,538.813,0.0
52480.0,STARLINK-3839,PAYLOAD,2023-10-01 05:29:59,15.08858305,0.0001198,53.2168,96.5512,88.3108,271.8021,-0.00014121,-2.536e-05,0.0,0 STARLINK-3839,1 52480U 22049AF  23274.22915667 -.00002536  00000-0 -14121-3 0  9992,2 52480  53.2168  96.5512 0001198  88.3108 271.8021 15.08858305 77986,6917.824,95.436,540.518,538.861,0.0
